{
    "links": {
        "self": "http://www.neowsapp.com/rest/v1/neo/3788121?api_key=iIulBulltgU6a56xZRHN4H3l9WmuAYTsLGpBGhQ2"
    },
    "id": "3788121",
    "neo_reference_id": "3788121",
    "name": "(2017 UE8)",
    "designation": "2017 UE8",
    "nasa_jpl_url": "http://ssd.jpl.nasa.gov/sbdb.cgi?sstr=3788121",
    "absolute_magnitude_h": 24.1,
    "estimated_diameter": {
        "kilometers": {
            "estimated_diameter_min": 0.040230458,
            "estimated_diameter_max": 0.0899580388
        },
        "meters": {
            "estimated_diameter_min": 40.2304579834,
            "estimated_diameter_max": 89.9580388169
        },
        "miles": {
            "estimated_diameter_min": 0.0249980399,
            "estimated_diameter_max": 0.0558973165
        },
        "feet": {
            "estimated_diameter_min": 131.9896957704,
            "estimated_diameter_max": 295.1379320721
        }
    },
    "is_potentially_hazardous_asteroid": false,
    "close_approach_data": [
        {
            "close_approach_date": "2017-11-11",
            "close_approach_date_full": "2017-Nov-11 10:30",
            "epoch_date_close_approach": 1510396200000,
            "relative_velocity": {
                "kilometers_per_second": "7.686044569",
                "kilometers_per_hour": "27669.7604484122",
                "miles_per_hour": "17192.9130964037"
            },
            "miss_distance": {
                "astronomical": "0.1847252305",
                "lunar": "71.8581146645",
                "kilometers": "27634501.018059035",
                "miles": "17171282.689663283"
            },
            "orbiting_body": "Earth"
        }
    ],
    "orbital_data": {
        "orbit_id": "1",
        "orbit_determination_date": "2017-10-29 10:31:07",
        "first_observation_date": "2017-10-27",
        "last_observation_date": "2017-10-29",
        "data_arc_in_days": 2,
        "observations_used": 22,
        "orbit_uncertainty": "9",
        "minimum_orbit_intersection": ".182628",
        "jupiter_tisserand_invariant": "3.219",
        "epoch_osculation": "2458054.5",
        "eccentricity": ".5493031783070077",
        "semi_major_axis": "2.494435188600482",
        "inclination": "11.63709404336312",
        "ascending_node_longitude": "21.55166096676205",
        "orbital_period": "1438.986645488676",
        "perihelion_distance": "1.124234011421397",
        "perihelion_argument": "45.17639225758194",
        "aphelion_distance": "3.864636365779567",
        "perihelion_time": "2458087.329397202997",
        "mean_anomaly": "351.7868709691427",
        "mean_motion": ".2501760534947459",
        "equinox": "J2000",
        "orbit_class": {
            "orbit_class_type": "AMO",
            "orbit_class_description": "Near-Earth asteroid orbits similar to that of 1221 Amor",
            "orbit_class_range": "1.017 AU < q (perihelion) < 1.3 AU"
        }
    },
    "is_sentry_object": false
}